STARLINK-1686           
1 46328U 20062D   26068.94194689  .00125350  00000+0  99254-3 0  9992
2 46328  53.0437 313.2055 0005526 281.1531  78.8864 15.70442116305229
STARLINK-11137 [DTC]    
1 60050U 24112N   26068.93570316  .00002563  00000+0  26012-4 0  9997
2 60050  53.1586 264.7609 0001085  78.3297 281.7842 15.69705840101026
