[{"OBJECT_NAME":"STARLINK-1686","OBJECT_ID":"2020-062D","EPOCH":"2026-03-09T22:36:24.211296","MEAN_MOTION":15.70442116,"ECCENTRICITY":0.00055257,"INCLINATION":53.0437,"RA_OF_ASC_NODE":313.2055,"ARG_OF_PERICENTER":281.1531,"MEAN_ANOMALY":78.8864,"EPHEMERIS_TYPE":0,"CLASSIFICATION_TYPE":"U","NORAD_CAT_ID":46328,"ELEMENT_SET_NO":999,"REV_AT_EPOCH":30522,"BSTAR":0.00099254031,"MEAN_MOTION_DOT":0.0012535,"MEAN_MOTION_DDOT":0},{"OBJECT_NAME":"STARLINK-11137 [DTC]","OBJECT_ID":"2024-112N","EPOCH":"2026-03-09T22:27:24.753024","MEAN_MOTION":15.6970584,"ECCENTRICITY":0.00010851,"INCLINATION":53.1586,"RA_OF_ASC_NODE":264.7609,"ARG_OF_PERICENTER":78.3297,"MEAN_ANOMALY":281.7842,"EPHEMERIS_TYPE":0,"CLASSIFICATION_TYPE":"U","NORAD_CAT_ID":60050,"ELEMENT_SET_NO":999,"REV_AT_EPOCH":10102,"BSTAR":2.6011955e-5,"MEAN_MOTION_DOT":2.563e-5,"MEAN_MOTION_DDOT":0}]
